{
  "type": "FeatureCollection",
  "features": [
    {
      "type": "Feature",
      "properties": {
        "id": "GZ-NS-999",
        "name": "南沙港特情站",
        "district": "南沙区",
        "wind_speed": 42.5,
        "rainfall": 156,
        "temperature": 28.5,
        "status": "danger",
        "update_time": "2026-04-16 18:00"
      },
      "geometry": {
        "type": "Point",
        "coordinates": [
          113.53,
          22.8
        ]
      }
    },
    {
      "type": "Feature",
      "properties": {
        "id": "GZ-CH-888",
        "name": "从化山洪监测点",
        "district": "从化区",
        "wind_speed": 12.5,
        "rainfall": 89.2,
        "temperature": 22.1,
        "status": "danger",
        "update_time": "2026-04-16 18:00"
      },
      "geometry": {
        "type": "Point",
        "coordinates": [
          113.58,
          23.54
        ]
      }
    },
    {
      "type": "Feature",
      "properties": {
        "id": "GZ-PY-777",
        "name": "番禺化龙站",
        "district": "番禺区",
        "wind_speed": 22.8,
        "rainfall": 45.5,
        "temperature": 26.4,
        "status": "warning",
        "update_time": "2026-04-16 18:00"
      },
      "geometry": {
        "type": "Point",
        "coordinates": [
          113.38,
          22.93
        ]
      }
    },
    {
      "type": "Feature",
      "properties": {
        "id": "GZ-ZC-666",
        "name": "增城正果站",
        "district": "增城区",
        "wind_speed": 18.5,
        "rainfall": 32.1,
        "temperature": 38.5,
        "status": "warning",
        "update_time": "2026-04-16 18:00"
      },
      "geometry": {
        "type": "Point",
        "coordinates": [
          113.82,
          23.28
        ]
      }
    },
    {
      "type": "Feature",
      "properties": {
        "id": "GZ-BY-555",
        "name": "白云机场气象站",
        "district": "白云区",
        "wind_speed": 31.2,
        "rainfall": 12.4,
        "temperature": 25.8,
        "status": "danger",
        "update_time": "2026-04-16 18:00"
      },
      "geometry": {
        "type": "Point",
        "coordinates": [
          113.27,
          23.39
        ]
      }
    },
    {
      "type": "Feature",
      "properties": {
        "id": "GZ-LW-444",
        "name": "荔湾芳村监测点",
        "district": "荔湾区",
        "wind_speed": 5.4,
        "rainfall": 112.8,
        "temperature": 24.2,
        "status": "danger",
        "update_time": "2026-04-16 18:00"
      },
      "geometry": {
        "type": "Point",
        "coordinates": [
          113.23,
          23.1
        ]
      }
    },
    {
      "type": "Feature",
      "properties": {
        "id": "GZ-HP-333",
        "name": "黄埔科学城站",
        "district": "黄埔区",
        "wind_speed": 14.8,
        "rainfall": 5.2,
        "temperature": 39.4,
        "status": "warning",
        "update_time": "2026-04-16 18:00"
      },
      "geometry": {
        "type": "Point",
        "coordinates": [
          113.45,
          23.17
        ]
      }
    },
    {
      "type": "Feature",
      "properties": {
        "id": "GZ-TH-222",
        "name": "天河珠江新城站",
        "district": "天河区",
        "wind_speed": 19.5,
        "rainfall": 48,
        "temperature": 26.8,
        "status": "warning",
        "update_time": "2026-04-16 18:00"
      },
      "geometry": {
        "type": "Point",
        "coordinates": [
          113.32,
          23.12
        ]
      }
    },
    {
      "type": "Feature",
      "properties": {
        "id": "GZ-YX-111",
        "name": "越秀公园监测站",
        "district": "越秀区",
        "wind_speed": 8.2,
        "rainfall": 22.5,
        "temperature": 27.1,
        "status": "normal",
        "update_time": "2026-04-16 18:00"
      },
      "geometry": {
        "type": "Point",
        "coordinates": [
          113.26,
          23.14
        ]
      }
    },
    {
      "type": "Feature",
      "properties": {
        "id": "GZ-HZ-000",
        "name": "海珠琶洲站",
        "district": "海珠区",
        "wind_speed": 26.7,
        "rainfall": 15.8,
        "temperature": 25.5,
        "status": "danger",
        "update_time": "2026-04-16 18:00"
      },
      "geometry": {
        "type": "Point",
        "coordinates": [
          113.36,
          23.1
        ]
      }
    },
    {
      "type": "Feature",
      "properties": {
        "id": "GZ-HD-123",
        "name": "花都芙蓉嶂站",
        "district": "花都区",
        "wind_speed": 11.2,
        "rainfall": 67.4,
        "temperature": 23.9,
        "status": "warning",
        "update_time": "2026-04-16 18:00"
      },
      "geometry": {
        "type": "Point",
        "coordinates": [
          113.22,
          23.45
        ]
      }
    },
    {
      "type": "Feature",
      "properties": {
        "id": "GZ-LW-05",
        "name": "荔湾芳村站",
        "district": "荔湾区",
        "wind_speed": 1.1,
        "rainfall": 16.2,
        "temperature": 32.4,
        "status": "normal",
        "update_time": "2026-04-16 18:00"
      },
      "geometry": {
        "type": "Point",
        "coordinates": [
          113.23,
          23.1
        ]
      }
    },
    {
      "type": "Feature",
      "properties": {
        "id": "GZ-YX-06",
        "name": "越秀公园站",
        "district": "越秀区",
        "wind_speed": 1,
        "rainfall": 15.3,
        "temperature": 32.8,
        "status": "normal",
        "update_time": "2026-04-16 18:00"
      },
      "geometry": {
        "type": "Point",
        "coordinates": [
          113.27,
          23.14
        ]
      }
    },
    {
      "type": "Feature",
      "properties": {
        "id": "GZ-TH-07",
        "name": "天河珠江新城站",
        "district": "天河区",
        "wind_speed": 1.3,
        "rainfall": 14.4,
        "temperature": 33.1,
        "status": "warning",
        "update_time": "2026-04-16 18:00"
      },
      "geometry": {
        "type": "Point",
        "coordinates": [
          113.33,
          23.12
        ]
      }
    },
    {
      "type": "Feature",
      "properties": {
        "id": "GZ-HZ-08",
        "name": "海珠琶洲站",
        "district": "海珠区",
        "wind_speed": 1.8,
        "rainfall": 17.1,
        "temperature": 32.3,
        "status": "normal",
        "update_time": "2026-04-16 18:00"
      },
      "geometry": {
        "type": "Point",
        "coordinates": [
          113.38,
          23.1
        ]
      }
    },
    {
      "type": "Feature",
      "properties": {
        "id": "GZ-HP-09",
        "name": "黄埔科学城站",
        "district": "黄埔区",
        "wind_speed": 1.7,
        "rainfall": 15.8,
        "temperature": 32.6,
        "status": "normal",
        "update_time": "2026-04-16 18:00"
      },
      "geometry": {
        "type": "Point",
        "coordinates": [
          113.47,
          23.17
        ]
      }
    },
    {
      "type": "Feature",
      "properties": {
        "id": "GZ-HD-10",
        "name": "花都湖站",
        "district": "花都区",
        "wind_speed": 1.5,
        "rainfall": 18.9,
        "temperature": 31,
        "status": "normal",
        "update_time": "2026-04-16 18:00"
      },
      "geometry": {
        "type": "Point",
        "coordinates": [
          113.22,
          23.4
        ]
      }
    },
    {
      "type": "Feature",
      "properties": {
        "id": "GZ-ZC-11",
        "name": "增城荔城站",
        "district": "增城区",
        "wind_speed": 1.4,
        "rainfall": 18,
        "temperature": 31.6,
        "status": "normal",
        "update_time": "2026-04-16 18:00"
      },
      "geometry": {
        "type": "Point",
        "coordinates": [
          113.82,
          23.27
        ]
      }
    }
  ]
}
